{
  "type": "FeatureCollection",
  "features": [
    {
      "type": "Feature",
      "properties": {
        "norad_id": 42988,
        "name": "SKYSAT-C10",
        "group": "resource",
        "lat": -37.07945013522756,
        "lon": -76.41851138628692,
        "alt_km": 476.89309771094304,
        "timestamp": "2025-12-04T09:47:37.180264+00:00",
        "meta_object_name": "SKYSAT-C10",
        "meta_object_id": "2017-068B",
        "meta_epoch": "2025-12-03T21:52:31.155744",
        "meta_mean_motion": 15.32008568,
        "meta_eccentricity": 0.0005511,
        "meta_inclination": 97.4257,
        "meta_ra_of_asc_node": 108.7403,
        "meta_arg_of_pericenter": 118.6562,
        "meta_mean_anomaly": 241.5234,
        "meta_ephemeris_type": 0,
        "meta_classification_type": "U",
        "meta_norad_cat_id": 42988,
        "meta_element_set_no": 999,
        "meta_rev_at_epoch": 45244,
        "meta_bstar": 0.00065499,
        "meta_mean_motion_dot": 0.00020203,
        "meta_mean_motion_ddot": 0,
        "tle_line1": "1 42988U 17068B   25337.91147171  .00020203  00000+0  65499-3 0  9996",
        "tle_line2": "2 42988  97.4257 108.7403 0005511 118.6562 241.5234 15.32008568452449"
      },
      "geometry": {
        "type": "Point",
        "coordinates": [
          -76.41851138628692,
          -37.07945013522756
        ]
      }
    },
    {
      "type": "Feature",
      "properties": {
        "norad_id": 42989,
        "name": "SKYSAT-C9",
        "group": "resource",
        "lat": -53.57625912711826,
        "lon": 118.76919883659234,
        "alt_km": 472.99185611031135,
        "timestamp": "2025-12-04T09:47:37.180274+00:00",
        "meta_object_name": "SKYSAT-C9",
        "meta_object_id": "2017-068C",
        "meta_epoch": "2025-12-04T03:46:28.618752",
        "meta_mean_motion": 15.35705598,
        "meta_eccentricity": 0.0010657,
        "meta_inclination": 97.4185,
        "meta_ra_of_asc_node": 108.3461,
        "meta_arg_of_pericenter": 115.7153,
        "meta_mean_anomaly": 244.5192,
        "meta_ephemeris_type": 0,
        "meta_classification_type": "U",
        "meta_norad_cat_id": 42989,
        "meta_element_set_no": 999,
        "meta_rev_at_epoch": 45276,
        "meta_bstar": 0.00072904,
        "meta_mean_motion_dot": 0.00025333,
        "meta_mean_motion_ddot": 0,
        "tle_line1": "1 42989U 17068C   25338.15727568  .00025333  00000+0  72904-3 0  9996",
        "tle_line2": "2 42989  97.4185 108.3461 0010657 115.7153 244.5192 15.35705598452762"
      },
      "geometry": {
        "type": "Point",
        "coordinates": [
          118.76919883659234,
          -53.57625912711826
        ]
      }
    },
    {
      "type": "Feature",
      "properties": {
        "norad_id": 42990,
        "name": "SKYSAT-C8",
        "group": "resource",
        "lat": 9.54396688252475,
        "lon": 107.11729986673551,
        "alt_km": 468.30433897469266,
        "timestamp": "2025-12-04T09:47:37.180285+00:00",
        "meta_object_name": "SKYSAT-C8",
        "meta_object_id": "2017-068D",
        "meta_epoch": "2025-12-04T03:29:02.433120",
        "meta_mean_motion": 15.32624085,
        "meta_eccentricity": 0.0002102,
        "meta_inclination": 97.4277,
        "meta_ra_of_asc_node": 108.1103,
        "meta_arg_of_pericenter": 18.419,
        "meta_mean_anomaly": 341.7127,
        "meta_ephemeris_type": 0,
        "meta_classification_type": "U",
        "meta_norad_cat_id": 42990,
        "meta_element_set_no": 999,
        "meta_rev_at_epoch": 45239,
        "meta_bstar": 0.00066927,
        "meta_mean_motion_dot": 0.00021041,
        "meta_mean_motion_ddot": 0,
        "tle_line1": "1 42990U 17068D   25338.14516705  .00021041  00000+0  66927-3 0  9996",
        "tle_line2": "2 42990  97.4277 108.1103 0002102  18.4190 341.7127 15.32624085452398"
      },
      "geometry": {
        "type": "Point",
        "coordinates": [
          107.11729986673551,
          9.54396688252475
        ]
      }
    },
    {
      "type": "Feature",
      "properties": {
        "norad_id": 42991,
        "name": "SKYSAT-C7",
        "group": "resource",
        "lat": -62.0904641026883,
        "lon": -84.83811059657145,
        "alt_km": 481.99874943273335,
        "timestamp": "2025-12-04T09:47:37.180295+00:00",
        "meta_object_name": "SKYSAT-C7",
        "meta_object_id": "2017-068E",
        "meta_epoch": "2025-12-04T04:02:02.942304",
        "meta_mean_motion": 15.32033625,
        "meta_eccentricity": 0.0007884,
        "meta_inclination": 97.4285,
        "meta_ra_of_asc_node": 109.1814,
        "meta_arg_of_pericenter": 83.8997,
        "meta_mean_anomaly": 276.3143,
        "meta_ephemeris_type": 0,
        "meta_classification_type": "U",
        "meta_norad_cat_id": 42991,
        "meta_element_set_no": 999,
        "meta_rev_at_epoch": 45246,
        "meta_bstar": 0.00069222,
        "meta_mean_motion_dot": 0.00021386,
        "meta_mean_motion_ddot": 0,
        "tle_line1": "1 42991U 17068E   25338.16808961  .00021386  00000+0  69222-3 0  9990",
        "tle_line2": "2 42991  97.4285 109.1814 0007884  83.8997 276.3143 15.32033625452464"
      },
      "geometry": {
        "type": "Point",
        "coordinates": [
          -84.83811059657145,
          -62.0904641026883
        ]
      }
    },
    {
      "type": "Feature",
      "properties": {
        "norad_id": 42992,
        "name": "SKYSAT-C6",
        "group": "resource",
        "lat": 24.339051080497455,
        "lon": 106.48224685264321,
        "alt_km": 471.1080594629557,
        "timestamp": "2025-12-04T09:47:37.180306+00:00",
        "meta_object_name": "SKYSAT-C6",
        "meta_object_id": "2017-068F",
        "meta_epoch": "2025-12-03T21:08:22.276032",
        "meta_mean_motion": 15.31198589,
        "meta_eccentricity": 0.0005146,
        "meta_inclination": 97.4317,
        "meta_ra_of_asc_node": 109.3389,
        "meta_arg_of_pericenter": 107.6681,
        "meta_mean_anomaly": 252.5122,
        "meta_ephemeris_type": 0,
        "meta_classification_type": "U",
        "meta_norad_cat_id": 42992,
        "meta_element_set_no": 999,
        "meta_rev_at_epoch": 45240,
        "meta_bstar": 0.00062176,
        "meta_mean_motion_dot": 0.00018692,
        "meta_mean_motion_ddot": 0,
        "tle_line1": "1 42992U 17068F   25337.88081338  .00018692  00000+0  62176-3 0  9997",
        "tle_line2": "2 42992  97.4317 109.3389 0005146 107.6681 252.5122 15.31198589452401"
      },
      "geometry": {
        "type": "Point",
        "coordinates": [
          106.48224685264321,
          24.339051080497455
        ]
      }
    },
    {
      "type": "Feature",
      "properties": {
        "norad_id": 43111,
        "name": "CARTOSAT-2F",
        "group": "resource",
        "lat": 44.54797278210272,
        "lon": -136.4358953558385,
        "alt_km": 503.5423175328915,
        "timestamp": "2025-12-04T09:47:37.180316+00:00",
        "meta_object_name": "CARTOSAT-2F",
        "meta_object_id": "2018-004A",
        "meta_epoch": "2025-12-03T22:08:15.239904",
        "meta_mean_motion": 15.19361073,
        "meta_eccentricity": 0.00011245,
        "meta_inclination": 97.433,
        "meta_ra_of_asc_node": 35.7026,
        "meta_arg_of_pericenter": 187.1053,
        "meta_mean_anomaly": 173.0166,
        "meta_ephemeris_type": 0,
        "meta_classification_type": "U",
        "meta_norad_cat_id": 43111,
        "meta_element_set_no": 999,
        "meta_rev_at_epoch": 43768,
        "meta_bstar": 8.4888928e-05,
        "meta_mean_motion_dot": 1.727e-05,
        "meta_mean_motion_ddot": 0,
        "tle_line1": "1 43111U 18004A   25337.92239861  .00001727  00000+0  84889-4 0  9990",
        "tle_line2": "2 43111  97.4330  35.7026 0001124 187.1053 173.0166 15.19361073437682"
      },
      "geometry": {
        "type": "Point",
        "coordinates": [
          -136.4358953558385,
          44.54797278210272
        ]
      }
    },
    {
      "type": "Feature",
      "properties": {
        "norad_id": 43259,
        "name": "GAOFEN-1 02",
        "group": "resource",
        "lat": 76.18364273866989,
        "lon": -108.51098052253957,
        "alt_km": 634.1459926411399,
        "timestamp": "2025-12-04T09:47:37.180326+00:00",
        "meta_object_name": "GAOFEN-1 02",
        "meta_object_id": "2018-031A",
        "meta_epoch": "2025-12-03T23:34:40.065024",
        "meta_mean_motion": 14.7645159,
        "meta_eccentricity": 0.00013072,
        "meta_inclination": 98.0819,
        "meta_ra_of_asc_node": 35.7678,
        "meta_arg_of_pericenter": 254.7553,
        "meta_mean_anomaly": 105.3512,
        "meta_ephemeris_type": 0,
        "meta_classification_type": "U",
        "meta_norad_cat_id": 43259,
        "meta_element_set_no": 999,
        "meta_rev_at_epoch": 41389,
        "meta_bstar": 0.00026117226,
        "meta_mean_motion_dot": 1.765e-05,
        "meta_mean_motion_ddot": 0,
        "tle_line1": "1 43259U 18031A   25337.98240816  .00001765  00000+0  26117-3 0  9992",
        "tle_line2": "2 43259  98.0819  35.7678 0001307 254.7553 105.3512 14.76451590413892"
      },
      "geometry": {
        "type": "Point",
        "coordinates": [
          -108.51098052253957,
          76.18364273866989
        ]
      }
    }
  ]
}